[{"OBJECT_NAME":"STARLINK-30833","OBJECT_ID":"2023-166C","EPOCH":"2026-03-09T16:18:42.270624","MEAN_MOTION":15.30188,"ECCENTRICITY":0.00013245,"INCLINATION":53.1607,"RA_OF_ASC_NODE":219.9375,"ARG_OF_PERICENTER":77.1905,"MEAN_ANOMALY":282.9244,"EPHEMERIS_TYPE":0,"CLASSIFICATION_TYPE":"U","NORAD_CAT_ID":58152,"ELEMENT_SET_NO":999,"REV_AT_EPOCH":13317,"BSTAR":2.8028487e-5,"MEAN_MOTION_DOT":4.71e-6,"MEAN_MOTION_DDOT":0},{"OBJECT_NAME":"FENGYUN 1C DEB","OBJECT_ID":"1999-025DFY","EPOCH":"2026-03-03T06:55:21.899424","MEAN_MOTION":15.25006274,"ECCENTRICITY":0.01038057,"INCLINATION":98.9901,"RA_OF_ASC_NODE":88.6648,"ARG_OF_PERICENTER":65.5781,"MEAN_ANOMALY":295.624,"EPHEMERIS_TYPE":0,"CLASSIFICATION_TYPE":"U","NORAD_CAT_ID":33687,"ELEMENT_SET_NO":999,"REV_AT_EPOCH":72733,"BSTAR":0.001670914,"MEAN_MOTION_DOT":0.00048845,"MEAN_MOTION_DDOT":0}]
